IRIDIUM 57              
1 25273U 98019B   24160.71039196  .00000764  00000+0  26042-3 0  9998
2 25273  86.3943 301.6729 0002123  92.5442 267.5997 14.35239750371416
IRIDIUM 63              
1 25286U 98021B   24160.73730069  .00000725  00000+0  24394-3 0  9999
2 25286  86.4003 238.5536 0002376  91.1899 268.9570 14.35792040370511
IRIDIUM 69              
1 25319U 98026A   24160.55272062  .00000996  00000+0  31007-3 0  9994
2 25319  86.3984 253.0446 0003494 135.8914 224.2564 14.40027542369276
IRIDIUM 71              
1 25320U 98026B   24160.55461676  .00000965  00000+0  29832-3 0  9996
2 25320  86.3988 247.8059 0001333 162.3405 197.7841 14.40341007369797
IRIDIUM 73              
1 25344U 98032C   24160.40249447  .00001022  00000+0  25584-3 0  9998
2 25344  86.4451 205.3307 0002506 106.4673 253.6808 14.50566330376357
IRIDIUM 82              
1 25467U 98051A   24160.79258606  .00018277  00000+0  92927-3 0  9999
2 25467  86.3749 289.7539 0125823 251.3740 107.3801 15.09988735367224
IRIDIUM 2               
1 25527U 98066A   24160.83941296  .00380798  51927-4  12950-2 0  9997
2 25527  85.4963 308.5422 0005087 265.3070  94.7628 15.89780140406116
